[{"OBJECT_NAME":"FLOCK 4Q-29","OBJECT_ID":"2023-174BA","EPOCH":"2026-03-09T17:08:34.461600","MEAN_MOTION":15.49539999,"ECCENTRICITY":0.00076444,"INCLINATION":97.3934,"RA_OF_ASC_NODE":157.4868,"ARG_OF_PERICENTER":141.6903,"MEAN_ANOMALY":218.4893,"EPHEMERIS_TYPE":0,"CLASSIFICATION_TYPE":"U","NORAD_CAT_ID":58304,"ELEMENT_SET_NO":999,"REV_AT_EPOCH":13032,"BSTAR":0.00060684089,"MEAN_MOTION_DOT":0.00033498,"MEAN_MOTION_DDOT":0},{"OBJECT_NAME":"ELECTRON KICK STAGE R\/B","OBJECT_ID":"2024-034B","EPOCH":"2026-03-09T15:37:28.811424","MEAN_MOTION":15.49799127,"ECCENTRICITY":0.00156115,"INCLINATION":98.1915,"RA_OF_ASC_NODE":115.7194,"ARG_OF_PERICENTER":36.9527,"MEAN_ANOMALY":323.2794,"EPHEMERIS_TYPE":0,"CLASSIFICATION_TYPE":"U","NORAD_CAT_ID":58993,"ELEMENT_SET_NO":999,"REV_AT_EPOCH":11404,"BSTAR":0.001109592,"MEAN_MOTION_DOT":0.00062341,"MEAN_MOTION_DDOT":0}]
